API VERSION: 1.2
API SOURCE: NASA/JPL Horizons API



*******************************************************************************
Ephemeris / API_USER Wed Apr 15 10:20:39 2026 Pasadena, USA      / Horizons
*******************************************************************************
Target body name: Uranus (799)                    {source: ura184_merged}
Center body name: Sun (10)                        {source: DE441}
Center-site name: BODY CENTER
*******************************************************************************
Start time      : A.D. 1900-Jan-01 00:00:00.0000 TDB
Stop  time      : A.D. 1999-Dec-18 00:00:00.0000 TDB
Step-size       : 43200 minutes
*******************************************************************************
Center geodetic : 0.0, 0.0, 0.0                   {E-lon(deg),Lat(deg),Alt(km)}
Center cylindric: 0.0, 0.0, 0.0                   {E-lon(deg),Dxy(km),Dz(km)}
Center radii    : 695700.0, 695700.0, 695700.0 km {Equator_a, b, pole_c}
Output units    : AU-D
Calendar mode   : Mixed Julian/Gregorian
Output type     : GEOMETRIC cartesian states
Output format   : 3 (position, velocity, LT, range, range-rate)
Reference frame : Ecliptic of J2000.0
*******************************************************************************
            JDTDB,            Calendar Date (TDB),                      X,                      Y,                      Z,                     VX,                     VY,                     VZ,                     LT,                     RG,                     RR,
**************************************************************************************************************************************************************************************************************************************************************************
$$SOE
2425820.500000000, A.D. 1929-Jul-28 00:00:00.0000,  1.976194249127553E+01,  3.360593292686630E+00, -2.442289346101370E-01, -6.938446563214495E-04,  3.698812788976828E-03,  2.268534611757825E-05,  1.157825934340461E-01,  2.004713461020883E+01, -6.420135293661379E-05,
2425850.500000000, A.D. 1929-Aug-27 00:00:00.0000,  1.974079837663886E+01,  3.471497553917230E+00, -2.435411684472486E-01, -7.158078909631818E-04,  3.694795048351449E-03,  2.319340559205193E-05,  1.157713746884231E-01,  2.004519214461886E+01, -6.534214384088576E-05,
2425880.500000000, A.D. 1929-Sep-26 00:00:00.0000,  1.971899545180025E+01,  3.582278171292160E+00, -2.428448472844102E-01, -7.375276003841172E-04,  3.690526707060728E-03,  2.331255629789012E-05,  1.157599563173760E-01,  2.004321511495818E+01, -6.628035775855701E-05,
2425910.500000000, A.D. 1929-Oct-26 00:00:00.0000,  1.969653453829880E+01,  3.692930662463799E+00, -2.421410641681498E-01, -7.596644300843060E-04,  3.686230314109497E-03,  2.353354268268128E-05,  1.157483388125275E-01,  2.004120360634858E+01, -6.763377053030596E-05,
2425940.500000000, A.D. 1929-Nov-25 00:00:00.0000,  1.967341765188066E+01,  3.803451302528455E+00, -2.414289185321724E-01, -7.814704619394231E-04,  3.681795457601049E-03,  2.390204726457437E-05,  1.157365299221624E-01,  2.003915896036404E+01, -6.868729868506931E-05,
2425970.500000000, A.D. 1929-Dec-25 00:00:00.0000,  1.964964640564478E+01,  3.913837183050661E+00, -2.407088940452894E-01, -8.033851687893391E-04,  3.677287368051135E-03,  2.423020999216631E-05,  1.157245359933732E-01,  2.003708227596950E+01, -6.985861854433569E-05,
2426000.500000000, A.D. 1930-Jan-24 00:00:00.0000,  1.962522128815342E+01,  4.024085079653778E+00, -2.399802714597723E-01, -8.249562172419224E-04,  3.672580019672498E-03,  2.455881855296725E-05,  1.157123565349376E-01,  2.003497346811251E+01, -7.072969123769876E-05,
2426030.500000000, A.D. 1930-Feb-23 00:00:00.0000,  1.960014361730208E+01,  4.134190834700193E+00, -2.392440461020030E-01, -8.468217588520507E-04,  3.667769806293720E-03,  2.453000121703912E-05,  1.156999947099662E-01,  2.003283308446865E+01, -7.190378043162352E-05,
2426060.500000000, A.D. 1930-Mar-25 00:00:00.0000,  1.957441299581306E+01,  4.244150931398559E+00, -2.384998311624897E-01, -8.686586108754291E-04,  3.662882426671686E-03,  2.493800571320031E-05,  1.156874445099418E-01,  2.003066008469543E+01, -7.306819859387809E-05,
2426090.500000000, A.D. 1930-Apr-24 00:00:00.0000,  1.954803119391344E+01,  4.353960829852941E+00, -2.377473864314988E-01, -8.902943352716402E-04,  3.657783250283915E-03,  2.516022105881105E-05,  1.156747108193968E-01,  2.002845531452343E+01, -7.407651740117177E-05,
2426120.500000000, A.D. 1930-May-24 00:00:00.0000,  1.952099980404528E+01,  4.463616553451851E+00, -2.369869423789583E-01, -9.118334849238452E-04,  3.652597558408279E-03,  2.557096731317612E-05,  1.156617980384790E-01,  2.002621953581463E+01, -7.500998070964262E-05,
2426150.500000000, A.D. 1930-Jun-23 00:00:00.0000,  1.949332138194448E+01,  4.573115051780310E+00, -2.362184311161342E-01, -9.332265334587860E-04,  3.647246587397592E-03,  2.562689402712041E-05,  1.156487170189332E-01,  2.002395462749036E+01, -7.583217428512321E-05,
2426180.500000000, A.D. 1930-Jul-23 00:00:00.0000,  1.946499602186127E+01,  4.682453479814424E+00, -2.354427466032695E-01, -9.550133149914174E-04,  3.641915882022026E-03,  2.591263756701231E-05,  1.156354650557598E-01,  2.002166012119449E+01, -7.703305397212650E-05,
2426210.500000000, A.D. 1930-Aug-22 00:00:00.0000,  1.943602458525298E+01,  4.791628988723301E+00, -2.346588398578424E-01, -9.764400518693286E-04,  3.636432532721182E-03,  2.630928429978240E-05,  1.156220436284615E-01,  2.001933627309495E+01, -7.791721961643179E-05,
2426240.500000000, A.D. 1930-Sep-21 00:00:00.0000,  1.940640723105887E+01,  4.900638181503994E+00, -2.338672549037685E-01, -9.980442627804244E-04,  3.630840051387485E-03,  2.660551283270290E-05,  1.156084496128024E-01,  2.001698254224710E+01, -7.899503165822311E-05,
2426270.500000000, A.D. 1930-Oct-21 00:00:00.0000,  1.937614394773865E+01,  5.009476518299346E+00, -2.330673932374158E-01, -1.019390124974868E-03,  3.625021444017831E-03,  2.688924247450770E-05,  1.155946771517611E-01,  2.001459791453908E+01, -7.987455010354146E-05,
2426300.500000000, A.D. 1930-Nov-20 00:00:00.0000,  1.934523645724737E+01,  5.118138842387038E+00, -2.322602715899350E-01, -1.041033036964835E-03,  3.619093713284160E-03,  2.691809277090641E-05,  1.155807290766579E-01,  2.001218288019882E+01, -8.106352839876785E-05,
2426330.500000000, A.D. 1930-Dec-20 00:00:00.0000,  1.931368558262191E+01,  5.226621065124623E+00, -2.314453595838528E-01, -1.062492683805449E-03,  3.613058467002817E-03,  2.737139100082539E-05,  1.155666043932130E-01,  2.000973726707212E+01, -8.210488199796645E-05,
2426360.500000000, A.D. 1931-Jan-19 00:00:00.0000,  1.928149459773403E+01,  5.334918926254604E+00, -2.306225817420650E-01, -1.083720668229045E-03,  3.606828130513699E-03,  2.753498325070669E-05,  1.155523153580829E-01,  2.000726319733325E+01, -8.296830632151471E-05,
2426390.500000000, A.D. 1931-Feb-18 00:00:00.0000,  1.924866575137926E+01,  5.443029702264376E+00, -2.297922103709215E-01, -1.104904202200828E-03,  3.600561908213284E-03,  2.786678414210942E-05,  1.155378707053418E-01,  2.000476218324028E+01, -8.379853850699078E-05,
2426420.500000000, A.D. 1931-Mar-20 00:00:00.0000,  1.921520117483668E+01,  5.550951277838370E+00, -2.289541636337144E-01, -1.125994092025835E-03,  3.594165762292757E-03,  2.790462183333872E-05,  1.155232794299227E-01,  2.000223578221759E+01, -8.456818861465903E-05,
2426450.500000000, A.D. 1931-Apr-19 00:00:00.0000,  1.918110042996858E+01,  5.658681052718680E+00, -2.281091073365084E-01, -1.147387030649970E-03,  3.587776346998861E-03,  2.823738421750722E-05,  1.155085355909354E-01,  1.999968296563193E+01, -8.562660909355504E-05,
2426480.500000000, A.D. 1931-May-19 00:00:00.0000,  1.914636435307482E+01,  5.766216025772761E+00, -2.272559630386014E-01, -1.168381792892458E-03,  3.581201469230097E-03,  2.859562552662637E-05,  1.154936395842939E-01,  1.999710380203367E+01, -8.635154121990362E-05,
2426510.500000000, A.D. 1931-Jun-18 00:00:00.0000,  1.911099333494099E+01,  5.873552382619230E+00, -2.263954282140237E-01, -1.189601335745409E-03,  3.574522081976109E-03,  2.884350268377960E-05,  1.154785880598155E-01,  1.999449771135667E+01, -8.731654926751431E-05,
2426540.500000000, A.D. 1931-Jul-18 00:00:00.0000,  1.907498821471183E+01,  5.980685644469984E+00, -2.255270163535460E-01, -1.210570016566817E-03,  3.567651159839144E-03,  2.912203381552484E-05,  1.154633788041754E-01,  1.999186431037561E+01, -8.809466195963596E-05,
2426570.500000000, A.D. 1931-Aug-17 00:00:00.0000,  1.903835125571130E+01,  6.087611715975283E+00, -2.246517272474438E-01, -1.231806966262048E-03,  3.560717147630016E-03,  2.922122550152893E-05,  1.154480180023919E-01,  1.998920466999322E+01, -8.914185961578003E-05,
2426600.500000000, A.D. 1931-Sep-16 00:00:00.0000,  1.900108324802157E+01,  6.194327700261979E+00, -2.237689048248218E-01, -1.252814545664614E-03,  3.553691396604148E-03,  2.968529081687721E-05,  1.154325055717973E-01,  1.998651877589604E+01, -8.999801743977025E-05,
2426630.500000000, A.D. 1931-Oct-16 00:00:00.0000,  1.896318661759888E+01,  6.300830181666354E+00, -2.228785968763005E-01, -1.273706407890360E-03,  3.546498543331140E-03,  2.979666964844760E-05,  1.154168494879622E-01,  1.998380800901131E+01, -9.078791624221548E-05,
2426660.500000000, A.D. 1931-Nov-15 00:00:00.0000,  1.892466205355486E+01,  6.407116527141882E+00, -2.219810024929735E-01, -1.294636451541243E-03,  3.539257632129940E-03,  3.010708073568488E-05,  1.154010495442652E-01,  1.998107233356362E+01, -9.162693715327785E-05,
2426690.500000000, A.D. 1931-Dec-15 00:00:00.0000,  1.888551060701135E+01,  6.513183374384326E+00, -2.210760044723125E-01, -1.315475458779275E-03,  3.531834419501007E-03,  3.015545938600515E-05,  1.153851061444662E-01,  1.997831181946183E+01, -9.243059038362114E-05,
